start=new Date('2022-11-28T00:00:00.000Z').valueOf();
sats=[{"SEMIMAJOR_AXIS":"6917.900","MEAN_MOTION_DDOT":"0.0000000000000","DECAY_DATE":null,"SITE":"AFETR","TLE_LINE1":"1 51860U 22022J   22331.77678329 -.00001137  00000-0 -53342-4 0  9993","NORAD_CAT_ID":"51860","FILE":"3671921","PERIOD":"95.438","REV_AT_EPOCH":"4227","MEAN_ELEMENT_THEORY":"SGP4","APOAPSIS":"541.614","TIME_SYSTEM":"UTC","EPOCH":"2022-11-27T18:38:34.076256","CENTER_NAME":"EARTH","OBJECT_TYPE":"PAYLOAD","RA_OF_ASC_NODE":"346.7563","COUNTRY_CODE":"US","GP_ID":"218992681","ELEMENT_SET_NO":"999","CLASSIFICATION_TYPE":"U","EPHEMERIS_TYPE":"0","OBJECT_ID":"2022-022J","MEAN_ANOMALY":"330.1064","REF_FRAME":"TEME","OBJECT_NAME":"STARLINK-3559","ARG_OF_PERICENTER":"30.0080","RCS_SIZE":"LARGE","TLE_LINE2":"2 51860  53.2192 346.7563 0002672  30.0080 330.1064 15.08833550 42276","MEAN_MOTION_DOT":"-0.00001137","BSTAR":"-0.00005334200000","ECCENTRICITY":"0.00026720","MEAN_MOTION":"15.08833550","LAUNCH_DATE":"2022-03-03","INCLINATION":"53.2192","PERIAPSIS":"537.917"},{"NORAD_CAT_ID":"51861","TLE_LINE1":"1 51861U 22022K   22331.76205892 -.00000969  00000-0 -42770-4 0  9999","DECAY_DATE":null,"SITE":"AFETR","MEAN_MOTION_DDOT":"0.0000000000000","SEMIMAJOR_AXIS":"6917.881","FILE":"3671921","PERIOD":"95.438","CENTER_NAME":"EARTH","OBJECT_TYPE":"PAYLOAD","EPOCH":"2022-11-27T18:17:21.890688","TIME_SYSTEM":"UTC","REV_AT_EPOCH":"4218","MEAN_ELEMENT_THEORY":"SGP4","APOAPSIS":"541.405","COUNTRY_CODE":"US","GP_ID":"218992931","RA_OF_ASC_NODE":"346.8205","MEAN_ANOMALY":"328.4123","EPHEMERIS_TYPE":"0","CLASSIFICATION_TYPE":"U","OBJECT_ID":"2022-022K","ELEMENT_SET_NO":"999","ARG_OF_PERICENTER":"31.7013","RCS_SIZE":"LARGE","OBJECT_NAME":"STARLINK-3562","REF_FRAME":"TEME","LAUNCH_DATE":"2022-03-03","INCLINATION":"53.2177","ECCENTRICITY":"0.00023990","MEAN_MOTION":"15.08839907","BSTAR":"-0.00004277000000","TLE_LINE2":"2 51861  53.2177 346.8205 0002399  31.7013 328.4123 15.08839907 42182","MEAN_MOTION_DOT":"-0.00000969","PERIAPSIS":"538.086"},{"PERIAPSIS":"538.159","INCLINATION":"53.2192","LAUNCH_DATE":"2022-03-03","MEAN_MOTION":"15.08832496","ECCENTRICITY":"0.00023270","BSTAR":"-0.00009511800000","MEAN_MOTION_DOT":"-0.00001802","TLE_LINE2":"2 51862  53.2192 346.7874 0002327  34.4345 325.6798 15.08832496 42329","RCS_SIZE":"LARGE","ARG_OF_PERICENTER":"34.4345","OBJECT_NAME":"STARLINK-3508","REF_FRAME":"TEME","MEAN_ANOMALY":"325.6798","OBJECT_ID":"2022-022L","EPHEMERIS_TYPE":"0","CLASSIFICATION_TYPE":"U","ELEMENT_SET_NO":"999","COUNTRY_CODE":"US","GP_ID":"218991181","RA_OF_ASC_NODE":"346.7874","OBJECT_TYPE":"PAYLOAD","CENTER_NAME":"EARTH","TIME_SYSTEM":"UTC","EPOCH":"2022-11-27T18:33:16.088832","MEAN_ELEMENT_THEORY":"SGP4","APOAPSIS":"541.378","REV_AT_EPOCH":"4232","PERIOD":"95.438","FILE":"3671921","NORAD_CAT_ID":"51862","TLE_LINE1":"1 51862U 22022L   22331.77310288 -.00001802  00000-0 -95118-4 0  9998","DECAY_DATE":null,"SITE":"AFETR","MEAN_MOTION_DDOT":"0.0000000000000","SEMIMAJOR_AXIS":"6917.903"},{"PERIAPSIS":"537.920","TLE_LINE2":"2 51863  53.2185 346.2720 0002634  34.7698 325.3465 15.08841142 42283","MEAN_MOTION_DOT":"-0.00001402","BSTAR":"-0.00006998100000","ECCENTRICITY":"0.00026340","MEAN_MOTION":"15.08841142","LAUNCH_DATE":"2022-03-03","INCLINATION":"53.2185","REF_FRAME":"TEME","OBJECT_NAME":"STARLINK-3555","ARG_OF_PERICENTER":"34.7698","RCS_SIZE":"LARGE","ELEMENT_SET_NO":"999","CLASSIFICATION_TYPE":"U","EPHEMERIS_TYPE":"0","OBJECT_ID":"2022-022M","MEAN_ANOMALY":"325.3465","RA_OF_ASC_NODE":"346.2720","COUNTRY_CODE":"US","GP_ID":"218991930","REV_AT_EPOCH":"4228","APOAPSIS":"541.564","MEAN_ELEMENT_THEORY":"SGP4","EPOCH":"2022-11-27T21:17:32.074656","TIME_SYSTEM":"UTC","CENTER_NAME":"EARTH","OBJECT_TYPE":"PAYLOAD","PERIOD":"95.437","FILE":"3671921","SEMIMAJOR_AXIS":"6917.877","SITE":"AFETR","DECAY_DATE":null,"MEAN_MOTION_DDOT":"0.0000000000000","TLE_LINE1":"1 51863U 22022M   22331.88717679 -.00001402  00000-0 -69981-4 0  9991","NORAD_CAT_ID":"51863"},{"ELEMENT_SET_NO":"999","OBJECT_ID":"2022-022N","CLASSIFICATION_TYPE":"U","EPHEMERIS_TYPE":"0","MEAN_ANOMALY":"328.4301","REF_FRAME":"TEME","OBJECT_NAME":"STARLINK-3548","RCS_SIZE":"LARGE","ARG_OF_PERICENTER":"31.6843","MEAN_MOTION_DOT":"-0.00001051","TLE_LINE2":"2 51864  53.2194 346.8163 0002531  31.6843 328.4301 15.08838847 42310","BSTAR":"-0.00004793200000","MEAN_MOTION":"15.08838847","ECCENTRICITY":"0.00025310","INCLINATION":"53.2194","LAUNCH_DATE":"2022-03-03","PERIAPSIS":"537.998","SEMIMAJOR_AXIS":"6917.884","DECAY_DATE":null,"MEAN_MOTION_DDOT":"0.0000000000000","SITE":"AFETR","TLE_LINE1":"1 51864U 22022N   22331.76574013 -.00001051  00000-0 -47932-4 0  9994","NORAD_CAT_ID":"51864","FILE":"3671921","PERIOD":"95.438","MEAN_ELEMENT_THEORY":"SGP4","APOAPSIS":"541.500","REV_AT_EPOCH":"4231","EPOCH":"2022-11-27T18:22:39.947232","TIME_SYSTEM":"UTC","OBJECT_TYPE":"PAYLOAD","CENTER_NAME":"EARTH","RA_OF_ASC_NODE":"346.8163","GP_ID":"218992182","COUNTRY_CODE":"US"},{"TLE_LINE1":"1 51865U 22022P   22331.74733499 -.00001469  00000-0 -74194-4 0  9991","NORAD_CAT_ID":"51865","SEMIMAJOR_AXIS":"6917.890","SITE":"AFETR","DECAY_DATE":null,"MEAN_MOTION_DDOT":"0.0000000000000","FILE":"3671921","PERIOD":"95.438","CENTER_NAME":"EARTH","OBJECT_TYPE":"PAYLOAD","REV_AT_EPOCH":"4226","APOAPSIS":"541.628","MEAN_ELEMENT_THEORY":"SGP4","EPOCH":"2022-11-27T17:56:09.743136","TIME_SYSTEM":"UTC","RA_OF_ASC_NODE":"346.8996","GP_ID":"218992432","COUNTRY_CODE":"US","MEAN_ANOMALY":"327.0908","ELEMENT_SET_NO":"999","EPHEMERIS_TYPE":"0","CLASSIFICATION_TYPE":"U","OBJECT_ID":"2022-022P","ARG_OF_PERICENTER":"33.0253","RCS_SIZE":"LARGE","REF_FRAME":"TEME","OBJECT_NAME":"STARLINK-3503","ECCENTRICITY":"0.00027080","MEAN_MOTION":"15.08836972","LAUNCH_DATE":"2022-03-03","INCLINATION":"53.2179","TLE_LINE2":"2 51865  53.2179 346.8996 0002708  33.0253 327.0908 15.08836972 42264","MEAN_MOTION_DOT":"-0.00001469","BSTAR":"-0.00007419400000","PERIAPSIS":"537.881"},{"CENTER_NAME":"EARTH","OBJECT_TYPE":"PAYLOAD","EPOCH":"2022-11-27T21:22:49.592928","TIME_SYSTEM":"UTC","REV_AT_EPOCH":"4228","MEAN_ELEMENT_THEORY":"SGP4","APOAPSIS":"541.736","COUNTRY_CODE":"US","GP_ID":"218991680","RA_OF_ASC_NODE":"346.2443","NORAD_CAT_ID":"51866","TLE_LINE1":"1 51866U 22022Q   22331.89085177 -.00004203  00000-0 -24595-3 0  9999","DECAY_DATE":null,"SITE":"AFETR","MEAN_MOTION_DDOT":"0.0000000000000","SEMIMAJOR_AXIS":"6917.815","PERIOD":"95.436","FILE":"3671921","LAUNCH_DATE":"2022-03-03","INCLINATION":"53.2195","ECCENTRICITY":"0.00029710","MEAN_MOTION":"15.08861291","BSTAR":"-0.00024595000000","MEAN_MOTION_DOT":"-0.00004203","TLE_LINE2":"2 51866  53.2195 346.2443 0002971  28.7209 331.3946 15.08861291 42282","PERIAPSIS":"537.625","MEAN_ANOMALY":"331.3946","EPHEMERIS_TYPE":"0","CLASSIFICATION_TYPE":"U","OBJECT_ID":"2022-022Q","ELEMENT_SET_NO":"999","ARG_OF_PERICENTER":"28.7209","RCS_SIZE":"LARGE","OBJECT_NAME":"STARLINK-3553","REF_FRAME":"TEME"},{"MEAN_MOTION_DOT":"-0.00000157","TLE_LINE2":"2 51867  53.2161 346.9176 0002153  37.4346 322.6796 15.08832879 42261","BSTAR":"0.00000827910000","MEAN_MOTION":"15.08832879","ECCENTRICITY":"0.00021530","INCLINATION":"53.2161","LAUNCH_DATE":"2022-03-03","PERIAPSIS":"538.278","ELEMENT_SET_NO":"999","OBJECT_ID":"2022-022R","EPHEMERIS_TYPE":"0","CLASSIFICATION_TYPE":"U","MEAN_ANOMALY":"322.6796","REF_FRAME":"TEME","OBJECT_NAME":"STARLINK-3590","RCS_SIZE":"LARGE","ARG_OF_PERICENTER":"37.4346","APOAPSIS":"541.257","MEAN_ELEMENT_THEORY":"SGP4","REV_AT_EPOCH":"4226","EPOCH":"2022-11-27T17:50:52.201536","TIME_SYSTEM":"UTC","OBJECT_TYPE":"PAYLOAD","CENTER_NAME":"EARTH","RA_OF_ASC_NODE":"346.9176","COUNTRY_CODE":"US","GP_ID":"218991432","SEMIMAJOR_AXIS":"6917.902","DECAY_DATE":null,"SITE":"AFETR","MEAN_MOTION_DDOT":"0.0000000000000","TLE_LINE1":"1 51867U 22022R   22331.74365974 -.00000157  00000-0  82791-5 0  9997","NORAD_CAT_ID":"51867","PERIOD":"95.438","FILE":"3671921"},{"FILE":"3671921","PERIOD":"95.438","SITE":"AFETR","DECAY_DATE":null,"MEAN_MOTION_DDOT":"0.0000000000000","SEMIMAJOR_AXIS":"6917.891","NORAD_CAT_ID":"51868","TLE_LINE1":"1 51868U 22022S   22331.75101851 -.00000504  00000-0 -13560-4 0  9995","GP_ID":"218992682","COUNTRY_CODE":"US","RA_OF_ASC_NODE":"346.8824","TIME_SYSTEM":"UTC","EPOCH":"2022-11-27T18:01:27.999264","MEAN_ELEMENT_THEORY":"SGP4","APOAPSIS":"541.176","REV_AT_EPOCH":"4226","OBJECT_TYPE":"PAYLOAD","CENTER_NAME":"EARTH","OBJECT_NAME":"STARLINK-3578","REF_FRAME":"TEME","RCS_SIZE":"LARGE","ARG_OF_PERICENTER":"39.4933","OBJECT_ID":"2022-022S","CLASSIFICATION_TYPE":"U","EPHEMERIS_TYPE":"0","ELEMENT_SET_NO":"999","MEAN_ANOMALY":"320.6208","PERIAPSIS":"538.335","BSTAR":"-0.00001356000000","MEAN_MOTION_DOT":"-0.00000504","TLE_LINE2":"2 51868  53.2174 346.8824 0002053  39.4933 320.6208 15.08836667 42263","INCLINATION":"53.2174","LAUNCH_DATE":"2022-03-03","MEAN_MOTION":"15.08836667","ECCENTRICITY":"0.00020530"},{"REF_FRAME":"TEME","OBJECT_NAME":"STARLINK-3588","RCS_SIZE":"LARGE","ARG_OF_PERICENTER":"31.3027","ELEMENT_SET_NO":"999","OBJECT_ID":"2022-022T","CLASSIFICATION_TYPE":"U","EPHEMERIS_TYPE":"0","MEAN_ANOMALY":"328.8105","PERIAPSIS":"538.140","MEAN_MOTION_DOT":"-0.00001737","TLE_LINE2":"2 51869  53.2183 347.8638 0002355  31.3027 328.8105 15.08832128 42239","BSTAR":"-0.00009105700000","MEAN_MOTION":"15.08832128","ECCENTRICITY":"0.00023550","INCLINATION":"53.2183","LAUNCH_DATE":"2022-03-03","PERIOD":"95.438","FILE":"3671921","SEMIMAJOR_AXIS":"6917.904","DECAY_DATE":null,"SITE":"AFETR","MEAN_MOTION_DDOT":"0.0000000000000","TLE_LINE1":"1 51869U 22022T   22331.53390538 -.00001737  00000-0 -91057-4 0  9990","NORAD_CAT_ID":"51869","RA_OF_ASC_NODE":"347.8638","GP_ID":"218992932","COUNTRY_CODE":"US","MEAN_ELEMENT_THEORY":"SGP4","APOAPSIS":"541.399","REV_AT_EPOCH":"4223","EPOCH":"2022-11-27T12:48:49.424832","TIME_SYSTEM":"UTC","OBJECT_TYPE":"PAYLOAD","CENTER_NAME":"EARTH"}];
